{
  "type": "FeatureCollection",
  "features": [
    {
      "type": "Feature",
      "properties": {
        "norad_id": 34752,
        "name": "COSMOS 2251 DEB",
        "group": "cosmos-2251-debris",
        "lat": -56.32740978815998,
        "lon": -163.17215401853124,
        "alt_km": 590.7144728535868,
        "timestamp": "2025-12-17T07:00:47.304531+00:00",
        "meta_object_name": "COSMOS 2251 DEB",
        "meta_object_id": "1993-036ZW",
        "meta_epoch": "2025-12-16T10:44:35.783232",
        "meta_mean_motion": 15.00015929,
        "meta_eccentricity": 0.00475384,
        "meta_inclination": 74.0132,
        "meta_ra_of_asc_node": 353.058,
        "meta_arg_of_pericenter": 120.2415,
        "meta_mean_anomaly": 240.3491,
        "meta_ephemeris_type": 0,
        "meta_classification_type": "U",
        "meta_norad_cat_id": 34752,
        "meta_element_set_no": 999,
        "meta_rev_at_epoch": 89905,
        "meta_bstar": 0.0006204636,
        "meta_mean_motion_dot": 7.874e-05,
        "meta_mean_motion_ddot": 0,
        "tle_line1": "1 34752U 93036ZW  25350.44763638  .00007874  00000+0  62046-3 0  9994",
        "tle_line2": "2 34752  74.0132 353.0580 0047538 120.2415 240.3491 15.00015929899052"
      },
      "geometry": {
        "type": "Point",
        "coordinates": [
          -163.17215401853124,
          -56.32740978815998
        ]
      }
    },
    {
      "type": "Feature",
      "properties": {
        "norad_id": 34754,
        "name": "COSMOS 2251 DEB",
        "group": "cosmos-2251-debris",
        "lat": -39.25449458757354,
        "lon": -154.351220575819,
        "alt_km": 742.5555724951346,
        "timestamp": "2025-12-17T07:00:47.304542+00:00",
        "meta_object_name": "COSMOS 2251 DEB",
        "meta_object_id": "1993-036ZY",
        "meta_epoch": "2025-12-16T16:28:02.583264",
        "meta_mean_motion": 14.40487403,
        "meta_eccentricity": 0.00297202,
        "meta_inclination": 74.0298,
        "meta_ra_of_asc_node": 220.3028,
        "meta_arg_of_pericenter": 335.6347,
        "meta_mean_anomaly": 81.7069,
        "meta_ephemeris_type": 0,
        "meta_classification_type": "U",
        "meta_norad_cat_id": 34754,
        "meta_element_set_no": 999,
        "meta_rev_at_epoch": 88190,
        "meta_bstar": 0.00019019849,
        "meta_mean_motion_dot": 5.81e-06,
        "meta_mean_motion_ddot": 0,
        "tle_line1": "1 34754U 93036ZY  25350.68614101  .00000581  00000+0  19020-3 0  9994",
        "tle_line2": "2 34754  74.0298 220.3028 0029720 335.6347  81.7069 14.40487403881905"
      },
      "geometry": {
        "type": "Point",
        "coordinates": [
          -154.351220575819,
          -39.25449458757354
        ]
      }
    },
    {
      "type": "Feature",
      "properties": {
        "norad_id": 34755,
        "name": "COSMOS 2251 DEB",
        "group": "cosmos-2251-debris",
        "lat": 37.75126057861877,
        "lon": -64.39142712823556,
        "alt_km": 1096.8037461429158,
        "timestamp": "2025-12-17T07:00:47.304552+00:00",
        "meta_object_name": "COSMOS 2251 DEB",
        "meta_object_id": "1993-036ZZ",
        "meta_epoch": "2025-12-15T12:45:24.180768",
        "meta_mean_motion": 13.50566127,
        "meta_eccentricity": 0.04082662,
        "meta_inclination": 73.9259,
        "meta_ra_of_asc_node": 285.5372,
        "meta_arg_of_pericenter": 304.8647,
        "meta_mean_anomaly": 172.7755,
        "meta_ephemeris_type": 0,
        "meta_classification_type": "U",
        "meta_norad_cat_id": 34755,
        "meta_element_set_no": 999,
        "meta_rev_at_epoch": 82561,
        "meta_bstar": 0.00098242493,
        "meta_mean_motion_dot": 1.036e-05,
        "meta_mean_motion_ddot": 0,
        "tle_line1": "1 34755U 93036ZZ  25349.53152987  .00001036  00000+0  98242-3 0  9995",
        "tle_line2": "2 34755  73.9259 285.5372 0408266 304.8647 172.7755 13.50566127825613"
      },
      "geometry": {
        "type": "Point",
        "coordinates": [
          -64.39142712823556,
          37.75126057861877
        ]
      }
    },
    {
      "type": "Feature",
      "properties": {
        "norad_id": 34756,
        "name": "COSMOS 2251 DEB",
        "group": "cosmos-2251-debris",
        "lat": -29.531665880556666,
        "lon": -73.76382932483462,
        "alt_km": 1139.6243792465111,
        "timestamp": "2025-12-17T07:00:47.304563+00:00",
        "meta_object_name": "COSMOS 2251 DEB",
        "meta_object_id": "1993-036AAA",
        "meta_epoch": "2025-12-16T08:53:18.201984",
        "meta_mean_motion": 13.67251835,
        "meta_eccentricity": 0.03452801,
        "meta_inclination": 74.003,
        "meta_ra_of_asc_node": 98.3991,
        "meta_arg_of_pericenter": 333.4281,
        "meta_mean_anomaly": 24.9484,
        "meta_ephemeris_type": 0,
        "meta_classification_type": "U",
        "meta_norad_cat_id": 34756,
        "meta_element_set_no": 999,
        "meta_rev_at_epoch": 83471,
        "meta_bstar": 0.00093292845,
        "meta_mean_motion_dot": 1.159e-05,
        "meta_mean_motion_ddot": 0,
        "tle_line1": "1 34756U 93036AAA 25350.37034956  .00001159  00000+0  93293-3 0  9992",
        "tle_line2": "2 34756  74.0030  98.3991 0345280 333.4281  24.9484 13.67251835834711"
      },
      "geometry": {
        "type": "Point",
        "coordinates": [
          -73.76382932483462,
          -29.531665880556666
        ]
      }
    },
    {
      "type": "Feature",
      "properties": {
        "norad_id": 34758,
        "name": "COSMOS 2251 DEB",
        "group": "cosmos-2251-debris",
        "lat": -0.20184885277677223,
        "lon": 112.22806603586133,
        "alt_km": 1201.441943510742,
        "timestamp": "2025-12-17T07:00:47.304574+00:00",
        "meta_object_name": "COSMOS 2251 DEB",
        "meta_object_id": "1993-036AAC",
        "meta_epoch": "2025-12-16T21:19:30.682848",
        "meta_mean_motion": 13.58083307,
        "meta_eccentricity": 0.03816062,
        "meta_inclination": 74.1075,
        "meta_ra_of_asc_node": 292.82,
        "meta_arg_of_pericenter": 55.5603,
        "meta_mean_anomaly": 308.0954,
        "meta_ephemeris_type": 0,
        "meta_classification_type": "U",
        "meta_norad_cat_id": 34758,
        "meta_element_set_no": 999,
        "meta_rev_at_epoch": 82966,
        "meta_bstar": 0.0014539123,
        "meta_mean_motion_dot": 1.674e-05,
        "meta_mean_motion_ddot": 0,
        "tle_line1": "1 34758U 93036AAC 25350.88854957  .00001674  00000+0  14539-2 0  9998",
        "tle_line2": "2 34758  74.1075 292.8200 0381606  55.5603 308.0954 13.58083307829662"
      },
      "geometry": {
        "type": "Point",
        "coordinates": [
          112.22806603586133,
          -0.20184885277677223
        ]
      }
    },
    {
      "type": "Feature",
      "properties": {
        "norad_id": 34760,
        "name": "COSMOS 2251 DEB",
        "group": "cosmos-2251-debris",
        "lat": -5.935902652566488,
        "lon": -67.46616120137378,
        "alt_km": 761.0071687413183,
        "timestamp": "2025-12-17T07:00:47.304585+00:00",
        "meta_object_name": "COSMOS 2251 DEB",
        "meta_object_id": "1993-036AAE",
        "meta_epoch": "2025-12-15T15:17:34.568160",
        "meta_mean_motion": 14.19579445,
        "meta_eccentricity": 0.00969523,
        "meta_inclination": 74.0638,
        "meta_ra_of_asc_node": 297.1884,
        "meta_arg_of_pericenter": 348.6722,
        "meta_mean_anomaly": 190.5489,
        "meta_ephemeris_type": 0,
        "meta_classification_type": "U",
        "meta_norad_cat_id": 34760,
        "meta_element_set_no": 999,
        "meta_rev_at_epoch": 86729,
        "meta_bstar": 0.00062937679,
        "meta_mean_motion_dot": 1.367e-05,
        "meta_mean_motion_ddot": 0,
        "tle_line1": "1 34760U 93036AAE 25349.63720565  .00001367  00000+0  62938-3 0  9995",
        "tle_line2": "2 34760  74.0638 297.1884 0096952 348.6722 190.5489 14.19579445867299"
      },
      "geometry": {
        "type": "Point",
        "coordinates": [
          -67.46616120137378,
          -5.935902652566488
        ]
      }
    },
    {
      "type": "Feature",
      "properties": {
        "norad_id": 34761,
        "name": "COSMOS 2251 DEB",
        "group": "cosmos-2251-debris",
        "lat": -34.794823608871575,
        "lon": -174.11928408781554,
        "alt_km": 796.5986053820725,
        "timestamp": "2025-12-17T07:00:47.304595+00:00",
        "meta_object_name": "COSMOS 2251 DEB",
        "meta_object_id": "1993-036AAF",
        "meta_epoch": "2025-12-16T18:19:26.421600",
        "meta_mean_motion": 14.38063879,
        "meta_eccentricity": 0.00366118,
        "meta_inclination": 74.0292,
        "meta_ra_of_asc_node": 355.3761,
        "meta_arg_of_pericenter": 28.2652,
        "meta_mean_anomaly": 332.0478,
        "meta_ephemeris_type": 0,
        "meta_classification_type": "U",
        "meta_norad_cat_id": 34761,
        "meta_element_set_no": 999,
        "meta_rev_at_epoch": 87707,
        "meta_bstar": 0.00049629048,
        "meta_mean_motion_dot": 1.489e-05,
        "meta_mean_motion_ddot": 0,
        "tle_line1": "1 34761U 93036AAF 25350.76350025  .00001489  00000+0  49629-3 0  9999",
        "tle_line2": "2 34761  74.0292 355.3761 0036611  28.2652 332.0478 14.38063879877074"
      },
      "geometry": {
        "type": "Point",
        "coordinates": [
          -174.11928408781554,
          -34.794823608871575
        ]
      }
    }
  ]
}